[{"CCSDS_OMM_VERS":"2.0","COMMENT":"GENERATED VIA SPACE-TRACK.ORG API","CREATION_DATE":"2020-06-21T18:04:59","ORIGINATOR":"18 SPCS","OBJECT_NAME":"STARLINK-1098","OBJECT_ID":"2020-001D","CENTER_NAME":"EARTH","REF_FRAME":"TEME","TIME_SYSTEM":"UTC","MEAN_ELEMENT_THEORY":"SGP4","EPOCH":"2020-06-21T14:00:01.999872","MEAN_MOTION":"15.05606210","ECCENTRICITY":"0.00012590","INCLINATION":"53.0005","RA_OF_ASC_NODE":"356.0001","ARG_OF_PERICENTER":"107.5703","MEAN_ANOMALY":"213.6844","EPHEMERIS_TYPE":"0","CLASSIFICATION_TYPE":"U","NORAD_CAT_ID":"44917","ELEMENT_SET_NO":"999","REV_AT_EPOCH":"2528","BSTAR":"-0.00102320000000","MEAN_MOTION_DOT":"-0.00015166","MEAN_MOTION_DDOT":"0.0000000000000","SEMIMAJOR_AXIS":"6927.782","PERIOD":"95.642","APOAPSIS":"550.519","PERIAPSIS":"548.775","OBJECT_TYPE":"PAYLOAD","RCS_SIZE":"LARGE","COUNTRY_CODE":"US","LAUNCH_DATE":"2020-01-07","SITE":"AFETR","DECAY_DATE":null,"FILE":"2770181","GP_ID":"156094337","TLE_LINE0":"0 STARLINK-1098","TLE_LINE1":"1 44917U 20001D   20173.58335648 -.00015166 +00000-0 -10232-2 0  9994","TLE_LINE2":"2 44917 053.0005 356.0001 0001259 107.5703 213.6844 15.05606210025286"},{"CCSDS_OMM_VERS":"2.0","COMMENT":"GENERATED VIA SPACE-TRACK.ORG API","CREATION_DATE":"2020-06-21T17:56:09","ORIGINATOR":"18 SPCS","OBJECT_NAME":"STARLINK-1098","OBJECT_ID":"2020-001D","CENTER_NAME":"EARTH","REF_FRAME":"TEME","TIME_SYSTEM":"UTC","MEAN_ELEMENT_THEORY":"SGP4","EPOCH":"2020-06-21T14:00:01.999872","MEAN_MOTION":"15.05606210","ECCENTRICITY":"0.00012590","INCLINATION":"53.0005","RA_OF_ASC_NODE":"356.0001","ARG_OF_PERICENTER":"107.5703","MEAN_ANOMALY":"213.6844","EPHEMERIS_TYPE":"0","CLASSIFICATION_TYPE":"U","NORAD_CAT_ID":"44917","ELEMENT_SET_NO":"999","REV_AT_EPOCH":"2528","BSTAR":"-0.00102320000000","MEAN_MOTION_DOT":"-0.00015166","MEAN_MOTION_DDOT":"0.0000000000000","SEMIMAJOR_AXIS":"6927.782","PERIOD":"95.642","APOAPSIS":"550.519","PERIAPSIS":"548.775","OBJECT_TYPE":"PAYLOAD","RCS_SIZE":"LARGE","COUNTRY_CODE":"US","LAUNCH_DATE":"2020-01-07","SITE":"AFETR","DECAY_DATE":null,"FILE":"2770164","GP_ID":"156073704","TLE_LINE0":"0 STARLINK-1098","TLE_LINE1":"1 44917U 20001D   20173.58335648 -.00015166  00000-0 -10232-2 0  9994","TLE_LINE2":"2 44917  53.0005 356.0001 0001259 107.5703 213.6844 15.05606210 25286"},{"CCSDS_OMM_VERS":"2.0","COMMENT":"GENERATED VIA SPACE-TRACK.ORG API","CREATION_DATE":"2020-06-21T17:56:09","ORIGINATOR":"18 SPCS","OBJECT_NAME":"STARLINK-1098","OBJECT_ID":"2020-001D","CENTER_NAME":"EARTH","REF_FRAME":"TEME","TIME_SYSTEM":"UTC","MEAN_ELEMENT_THEORY":"SGP4","EPOCH":"2020-06-21T14:00:01.999872","MEAN_MOTION":"15.05606210","ECCENTRICITY":"0.00012590","INCLINATION":"53.0005","RA_OF_ASC_NODE":"356.0001","ARG_OF_PERICENTER":"107.5703","MEAN_ANOMALY":"213.6844","EPHEMERIS_TYPE":"0","CLASSIFICATION_TYPE":"U","NORAD_CAT_ID":"44917","ELEMENT_SET_NO":"999","REV_AT_EPOCH":"2528","BSTAR":"-0.00102320000000","MEAN_MOTION_DOT":"-0.00015166","MEAN_MOTION_DDOT":"0.0000000000000","SEMIMAJOR_AXIS":"6927.782","PERIOD":"95.642","APOAPSIS":"550.519","PERIAPSIS":"548.775","OBJECT_TYPE":"PAYLOAD","RCS_SIZE":"LARGE","COUNTRY_CODE":"US","LAUNCH_DATE":"2020-01-07","SITE":"AFETR","DECAY_DATE":null,"FILE":"2770168","GP_ID":"156073556","TLE_LINE0":"0 STARLINK-1098","TLE_LINE1":"1 44917U 20001D   20173.58335648 -.00015166  00000-0 -10232-2 0  9994","TLE_LINE2":"2 44917  53.0005 356.0001 0001259 107.5703 213.6844 15.05606210 25286"},{"CCSDS_OMM_VERS":"2.0","COMMENT":"GENERATED VIA SPACE-TRACK.ORG API","CREATION_DATE":"2020-06-21T21:36:09","ORIGINATOR":"18 SPCS","OBJECT_NAME":"STARLINK-1098","OBJECT_ID":"2020-001D","CENTER_NAME":"EARTH","REF_FRAME":"TEME","TIME_SYSTEM":"UTC","MEAN_ELEMENT_THEORY":"SGP4","EPOCH":"2020-06-21T20:00:01.000224","MEAN_MOTION":"15.05588401","ECCENTRICITY":"0.00012190","INCLINATION":"53.0004","RA_OF_ASC_NODE":"354.8790","ARG_OF_PERICENTER":"97.6630","MEAN_ANOMALY":"139.3252","EPHEMERIS_TYPE":"0","CLASSIFICATION_TYPE":"U","NORAD_CAT_ID":"44917","ELEMENT_SET_NO":"999","REV_AT_EPOCH":"2532","BSTAR":"0.00019499000000","MEAN_MOTION_DOT":"0.00002563","MEAN_MOTION_DDOT":"0.0000000000000","SEMIMAJOR_AXIS":"6927.837","PERIOD":"95.643","APOAPSIS":"550.546","PERIAPSIS":"548.857","OBJECT_TYPE":"PAYLOAD","RCS_SIZE":"LARGE","COUNTRY_CODE":"US","LAUNCH_DATE":"2020-01-07","SITE":"AFETR","DECAY_DATE":null,"FILE":"2770192","GP_ID":"156114774","TLE_LINE0":"0 STARLINK-1098","TLE_LINE1":"1 44917U 20001D   20173.83334491  .00002563  00000-0  19499-3 0  9997","TLE_LINE2":"2 44917  53.0004 354.8790 0001219  97.6630 139.3252 15.05588401 25323"},{"CCSDS_OMM_VERS":"2.0","COMMENT":"GENERATED VIA SPACE-TRACK.ORG API","CREATION_DATE":"2020-06-22T02:12:00","ORIGINATOR":"18 SPCS","OBJECT_NAME":"STARLINK-1098","OBJECT_ID":"2020-001D","CENTER_NAME":"EARTH","REF_FRAME":"TEME","TIME_SYSTEM":"UTC","MEAN_ELEMENT_THEORY":"SGP4","EPOCH":"2020-06-21T22:00:00.999936","MEAN_MOTION":"15.05573920","ECCENTRICITY":"0.00012040","INCLINATION":"53.0005","RA_OF_ASC_NODE":"354.5050","ARG_OF_PERICENTER":"96.1026","MEAN_ANOMALY":"232.8166","EPHEMERIS_TYPE":"0","CLASSIFICATION_TYPE":"U","NORAD_CAT_ID":"44917","ELEMENT_SET_NO":"999","REV_AT_EPOCH":"176","BSTAR":"0.00240000000000","MEAN_MOTION_DOT":"0.00034856","MEAN_MOTION_DDOT":"0.0000000000000","SEMIMAJOR_AXIS":"6927.881","PERIOD":"95.644","APOAPSIS":"550.580","PERIAPSIS":"548.912","OBJECT_TYPE":"PAYLOAD","RCS_SIZE":"LARGE","COUNTRY_CODE":"US","LAUNCH_DATE":"2020-01-07","SITE":"AFETR","DECAY_DATE":null,"FILE":"2770378","GP_ID":"156138426","TLE_LINE0":"0 STARLINK-1098","TLE_LINE1":"1 44917U 20001D   20173.91667824 +.00034856 +00000-0 +24000-2 0  9998","TLE_LINE2":"2 44917 053.0005 354.5050 0001204 096.1026 232.8166 15.05573920001762"},{"CCSDS_OMM_VERS":"2.0","COMMENT":"GENERATED VIA SPACE-TRACK.ORG API","CREATION_DATE":"2020-06-22T02:36:09","ORIGINATOR":"18 SPCS","OBJECT_NAME":"STARLINK-1098","OBJECT_ID":"2020-001D","CENTER_NAME":"EARTH","REF_FRAME":"TEME","TIME_SYSTEM":"UTC","MEAN_ELEMENT_THEORY":"SGP4","EPOCH":"2020-06-22T02:00:01.000224","MEAN_MOTION":"15.05603082","ECCENTRICITY":"0.00011590","INCLINATION":"53.0003","RA_OF_ASC_NODE":"353.7562","ARG_OF_PERICENTER":"97.4428","MEAN_ANOMALY":"55.3236","EPHEMERIS_TYPE":"0","CLASSIFICATION_TYPE":"U","NORAD_CAT_ID":"44917","ELEMENT_SET_NO":"999","REV_AT_EPOCH":"2536","BSTAR":"-0.00117820000000","MEAN_MOTION_DOT":"-0.00017414","MEAN_MOTION_DDOT":"0.0000000000000","SEMIMAJOR_AXIS":"6927.792","PERIOD":"95.642","APOAPSIS":"550.460","PERIAPSIS":"548.854","OBJECT_TYPE":"PAYLOAD","RCS_SIZE":"LARGE","COUNTRY_CODE":"US","LAUNCH_DATE":"2020-01-07","SITE":"AFETR","DECAY_DATE":null,"FILE":"2770382","GP_ID":"156139072","TLE_LINE0":"0 STARLINK-1098","TLE_LINE1":"1 44917U 20001D   20174.08334491 -.00017414  00000-0 -11782-2 0  9994","TLE_LINE2":"2 44917  53.0003 353.7562 0001159  97.4428  55.3236 15.05603082 25369"},{"CCSDS_OMM_VERS":"2.0","COMMENT":"GENERATED VIA SPACE-TRACK.ORG API","CREATION_DATE":"2020-06-22T06:16:10","ORIGINATOR":"18 SPCS","OBJECT_NAME":"STARLINK-1098","OBJECT_ID":"2020-001D","CENTER_NAME":"EARTH","REF_FRAME":"TEME","TIME_SYSTEM":"UTC","MEAN_ELEMENT_THEORY":"SGP4","EPOCH":"2020-06-22T04:00:00.999936","MEAN_MOTION":"15.05610751","ECCENTRICITY":"0.00011510","INCLINATION":"53.0005","RA_OF_ASC_NODE":"353.3816","ARG_OF_PERICENTER":"102.0508","MEAN_ANOMALY":"142.6439","EPHEMERIS_TYPE":"0","CLASSIFICATION_TYPE":"U","NORAD_CAT_ID":"44917","ELEMENT_SET_NO":"999","REV_AT_EPOCH":"2537","BSTAR":"-0.00253510000000","MEAN_MOTION_DOT":"-0.00037053","MEAN_MOTION_DDOT":"0.0000000000000","SEMIMAJOR_AXIS":"6927.768","PERIOD":"95.642","APOAPSIS":"550.430","PERIAPSIS":"548.836","OBJECT_TYPE":"PAYLOAD","RCS_SIZE":"LARGE","COUNTRY_CODE":"US","LAUNCH_DATE":"2020-01-07","SITE":"AFETR","DECAY_DATE":null,"FILE":"2770416","GP_ID":"156139427","TLE_LINE0":"0 STARLINK-1098","TLE_LINE1":"1 44917U 20001D   20174.16667824 -.00037053  00000-0 -25351-2 0  9990","TLE_LINE2":"2 44917  53.0005 353.3816 0001151 102.0508 142.6439 15.05610751 25370"},{"CCSDS_OMM_VERS":"2.0","COMMENT":"GENERATED VIA SPACE-TRACK.ORG API","CREATION_DATE":"2020-06-22T20:45:28","ORIGINATOR":"18 SPCS","OBJECT_NAME":"STARLINK-1098","OBJECT_ID":"2020-001D","CENTER_NAME":"EARTH","REF_FRAME":"TEME","TIME_SYSTEM":"UTC","MEAN_ELEMENT_THEORY":"SGP4","EPOCH":"2020-06-22T06:00:00.999648","MEAN_MOTION":"15.05594950","ECCENTRICITY":"0.00011540","INCLINATION":"53.0008","RA_OF_ASC_NODE":"353.0071","ARG_OF_PERICENTER":"105.7649","MEAN_ANOMALY":"230.8668","EPHEMERIS_TYPE":"0","CLASSIFICATION_TYPE":"U","NORAD_CAT_ID":"44917","ELEMENT_SET_NO":"999","REV_AT_EPOCH":"175","BSTAR":"-0.00043478000000","MEAN_MOTION_DOT":"-0.00006611","MEAN_MOTION_DDOT":"0.0000000000000","SEMIMAJOR_AXIS":"6927.817","PERIOD":"95.643","APOAPSIS":"550.481","PERIAPSIS":"548.882","OBJECT_TYPE":"PAYLOAD","RCS_SIZE":"LARGE","COUNTRY_CODE":"US","LAUNCH_DATE":"2020-01-07","SITE":"AFETR","DECAY_DATE":null,"FILE":"2770852","GP_ID":"156169244","TLE_LINE0":"0 STARLINK-1098","TLE_LINE1":"1 44917U 20001D   20174.25001157 -.00006611 +00000-0 -43478-3 0  9998","TLE_LINE2":"2 44917 053.0008 353.0071 0001154 105.7649 230.8668 15.05594950001754"}]